{"fetched_at":"2026-07-18T06:28:31.986Z","source":"https://celestrak.org/NORAD/elements/gp.php?NAME=STRIX&FORMAT=JSON","constellation":"synspective","records":[{"OBJECT_NAME":"STRIX-1","OBJECT_ID":"2022-113A","EPOCH":"2026-07-17T23:22:40.446336","CLASSIFICATION_TYPE":"U","MEAN_MOTION":15.4108161,"ECCENTRICITY":0.00055824,"INCLINATION":97.447,"RA_OF_ASC_NODE":261.5731,"ARG_OF_PERICENTER":125.1584,"MEAN_ANOMALY":235.0186,"EPHEMERIS_TYPE":0,"NORAD_CAT_ID":53815,"ELEMENT_SET_NO":999,"REV_AT_EPOCH":21218,"BSTAR":0.000345608,"MEAN_MOTION_DOT":0.00014219,"MEAN_MOTION_DDOT":0},{"OBJECT_NAME":"STRIX-3","OBJECT_ID":"2024-047A","EPOCH":"2026-07-17T22:18:01.680768","CLASSIFICATION_TYPE":"U","MEAN_MOTION":15.19836891,"ECCENTRICITY":0.00116777,"INCLINATION":97.664,"RA_OF_ASC_NODE":175.0709,"ARG_OF_PERICENTER":324.5473,"MEAN_ANOMALY":35.4984,"EPHEMERIS_TYPE":0,"NORAD_CAT_ID":59224,"ELEMENT_SET_NO":999,"REV_AT_EPOCH":12941,"BSTAR":0.00022036924,"MEAN_MOTION_DOT":0.00004659,"MEAN_MOTION_DDOT":0},{"OBJECT_NAME":"STRIX-4","OBJECT_ID":"2024-137A","EPOCH":"2026-07-17T21:46:58.482048","CLASSIFICATION_TYPE":"U","MEAN_MOTION":15.33370756,"ECCENTRICITY":0.0016466,"INCLINATION":43.015,"RA_OF_ASC_NODE":110.1147,"ARG_OF_PERICENTER":150.4396,"MEAN_ANOMALY":209.7392,"EPHEMERIS_TYPE":0,"NORAD_CAT_ID":60352,"ELEMENT_SET_NO":999,"REV_AT_EPOCH":10873,"BSTAR":0.00032670117,"MEAN_MOTION_DOT":0.00010536,"MEAN_MOTION_DDOT":0},{"OBJECT_NAME":"STRIX-2","OBJECT_ID":"2024-248A","EPOCH":"2026-07-17T23:20:27.714336","CLASSIFICATION_TYPE":"U","MEAN_MOTION":15.09205984,"ECCENTRICITY":0.00139207,"INCLINATION":97.63,"RA_OF_ASC_NODE":154.4428,"ARG_OF_PERICENTER":225.344,"MEAN_ANOMALY":134.6655,"EPHEMERIS_TYPE":0,"NORAD_CAT_ID":62406,"ELEMENT_SET_NO":999,"REV_AT_EPOCH":8623,"BSTAR":0.0001869809,"MEAN_MOTION_DOT":0.00002914,"MEAN_MOTION_DDOT":0},{"OBJECT_NAME":"STRIX-5","OBJECT_ID":"2025-229A","EPOCH":"2026-07-17T20:08:29.249088","CLASSIFICATION_TYPE":"U","MEAN_MOTION":15.04600109,"ECCENTRICITY":0.00380397,"INCLINATION":41.9277,"RA_OF_ASC_NODE":117.4015,"ARG_OF_PERICENTER":254.2916,"MEAN_ANOMALY":105.3712,"EPHEMERIS_TYPE":0,"NORAD_CAT_ID":65971,"ELEMENT_SET_NO":999,"REV_AT_EPOCH":4159,"BSTAR":0.0001424505,"MEAN_MOTION_DOT":0.00001868,"MEAN_MOTION_DDOT":0},{"OBJECT_NAME":"STRIX-6","OBJECT_ID":"2026-056A","EPOCH":"2026-07-17T07:12:58.438368","CLASSIFICATION_TYPE":"U","MEAN_MOTION":15.00332459,"ECCENTRICITY":0.0016627,"INCLINATION":50.2825,"RA_OF_ASC_NODE":207.4265,"ARG_OF_PERICENTER":359.2627,"MEAN_ANOMALY":0.8295,"EPHEMERIS_TYPE":0,"NORAD_CAT_ID":68291,"ELEMENT_SET_NO":999,"REV_AT_EPOCH":1779,"BSTAR":0.000093725,"MEAN_MOTION_DOT":0.00000923,"MEAN_MOTION_DDOT":0},{"OBJECT_NAME":"STRIX-7","OBJECT_ID":"2026-112A","EPOCH":"2026-07-17T21:49:17.914368","CLASSIFICATION_TYPE":"U","MEAN_MOTION":15.01619741,"ECCENTRICITY":0.00250046,"INCLINATION":44.9083,"RA_OF_ASC_NODE":31.068,"ARG_OF_PERICENTER":222.476,"MEAN_ANOMALY":137.4177,"EPHEMERIS_TYPE":0,"NORAD_CAT_ID":69177,"ELEMENT_SET_NO":999,"REV_AT_EPOCH":849,"BSTAR":0.00015671206,"MEAN_MOTION_DOT":0.00001843,"MEAN_MOTION_DDOT":0},{"OBJECT_NAME":"STRIX-8","OBJECT_ID":"2026-146A","EPOCH":"2026-07-17T20:59:14.138016","CLASSIFICATION_TYPE":"U","MEAN_MOTION":15.04447679,"ECCENTRICITY":0.00067861,"INCLINATION":41.9906,"RA_OF_ASC_NODE":358.251,"ARG_OF_PERICENTER":41.716,"MEAN_ANOMALY":318.4183,"EPHEMERIS_TYPE":0,"NORAD_CAT_ID":69701,"ELEMENT_SET_NO":999,"REV_AT_EPOCH":318,"BSTAR":0.00017543941,"MEAN_MOTION_DOT":0.00002305,"MEAN_MOTION_DDOT":0}]}
