STRIX-1                 
1 53815U 22113A   26198.97407924  .00014219  00000+0  34561-3 0  9997
2 53815  97.4470 261.5731 0005582 125.1584 235.0186 15.41081610212182
STRIX-3                 
1 59224U 24047A   26198.92918612  .00004659  00000+0  22037-3 0  9993
2 59224  97.6640 175.0709 0011677 324.5473  35.4984 15.19836891129416
STRIX-4                 
1 60352U 24137A   26198.90762132  .00010536  00000+0  32670-3 0  9994
2 60352  43.0150 110.1147 0016466 150.4396 209.7392 15.33370756108738
STRIX-2                 
1 62406U 24248A   26198.97254299  .00002914  00000+0  18698-3 0  9991
2 62406  97.6300 154.4428 0013920 225.3440 134.6655 15.09205984 86230
STRIX-5                 
1 65971U 25229A   26198.83922742  .00001868  00000+0  14245-3 0  9992
2 65971  41.9277 117.4015 0038039 254.2916 105.3712 15.04600109 41595
STRIX-6                 
1 68291U 26056A   26198.30067637  .00000923  00000+0  93725-4 0  9996
2 68291  50.2825 207.4265 0016627 359.2627   0.8295 15.00332459 17792
STRIX-7                 
1 69177U 26112A   26198.90923512  .00001843  00000+0  15671-3 0  9997
2 69177  44.9083  31.0680 0025004 222.4760 137.4177 15.01619741  8498
STRIX-8                 
1 69701U 26146A   26198.87446919  .00002305  00000+0  17544-3 0  9999
2 69701  41.9906 358.2510 0006786  41.7160 318.4183 15.04447679  3181
